{
    "links": {
        "self": "http://www.neowsapp.com/rest/v1/neo/3789424?api_key=iIulBulltgU6a56xZRHN4H3l9WmuAYTsLGpBGhQ2"
    },
    "id": "3789424",
    "neo_reference_id": "3789424",
    "name": "(2017 VB15)",
    "designation": "2017 VB15",
    "nasa_jpl_url": "http://ssd.jpl.nasa.gov/sbdb.cgi?sstr=3789424",
    "absolute_magnitude_h": 25.7,
    "estimated_diameter": {
        "kilometers": {
            "estimated_diameter_min": 0.0192555078,
            "estimated_diameter_max": 0.0430566244
        },
        "meters": {
            "estimated_diameter_min": 19.2555078188,
            "estimated_diameter_max": 43.0566244241
        },
        "miles": {
            "estimated_diameter_min": 0.0119648141,
            "estimated_diameter_max": 0.0267541378
        },
        "feet": {
            "estimated_diameter_min": 63.1742402722,
            "estimated_diameter_max": 141.2618956756
        }
    },
    "is_potentially_hazardous_asteroid": false,
    "close_approach_data": [
        {
            "close_approach_date": "2017-11-07",
            "close_approach_date_full": "2017-Nov-07 01:02",
            "epoch_date_close_approach": 1510016520000,
            "relative_velocity": {
                "kilometers_per_second": "9.1309466106",
                "kilometers_per_hour": "32871.4077982291",
                "miles_per_hour": "20425.0144732941"
            },
            "miss_distance": {
                "astronomical": "0.033303577",
                "lunar": "12.955091453",
                "kilometers": "4982144.18258099",
                "miles": "3095760.842718062"
            },
            "orbiting_body": "Earth"
        }
    ],
    "orbital_data": {
        "orbit_id": "2",
        "orbit_determination_date": "2017-11-20 06:21:52",
        "first_observation_date": "2017-11-15",
        "last_observation_date": "2017-11-20",
        "data_arc_in_days": 5,
        "observations_used": 47,
        "orbit_uncertainty": "8",
        "minimum_orbit_intersection": ".0227956",
        "jupiter_tisserand_invariant": "4.493",
        "epoch_osculation": "2458073.5",
        "eccentricity": ".3729586526289034",
        "semi_major_axis": "1.484088613397416",
        "inclination": "5.47916466981021",
        "ascending_node_longitude": "234.1148878247142",
        "orbital_period": "660.3712786638151",
        "perihelion_distance": ".9305849237628183",
        "perihelion_argument": "125.1777100864618",
        "aphelion_distance": "2.037592303032014",
        "perihelion_time": "2458028.515796642420",
        "mean_anomaly": "24.52304291836574",
        "mean_motion": ".5451478760984553",
        "equinox": "J2000",
        "orbit_class": {
            "orbit_class_type": "APO",
            "orbit_class_description": "Near-Earth asteroid orbits which cross the Earth’s orbit similar to that of 1862 Apollo",
            "orbit_class_range": "a (semi-major axis) > 1.0 AU; q (perihelion) < 1.017 AU"
        }
    },
    "is_sentry_object": false
}